{"type": "FeatureCollection", "features": [ {"type": "Feature", "properties": {"norad_id": 30688, "name": "FENGYUN 1C DEB", "group": "fengyun-1c-debris", "lat": 75.46438555075204, "lon": -93.07356497894911, "alt_km": 780.615687738562, "timestamp": "2025-12-03T08:58:46.279587+00:00", "meta": {"OBJECT_NAME": "FENGYUN 1C DEB", "OBJECT_ID": "1999-025AQW", "EPOCH": "2025-12-03T03:37:05.668320", "MEAN_MOTION": 14.32560008, "ECCENTRICITY": 0.0014915, "INCLINATION": 98.7031, "RA_OF_ASC_NODE": 50.4905, "ARG_OF_PERICENTER": 346.5915, "MEAN_ANOMALY": 43.5186, "EPHEMERIS_TYPE": 0, "CLASSIFICATION_TYPE": "U", "NORAD_CAT_ID": 30688, "ELEMENT_SET_NO": 999, "REV_AT_EPOCH": 97123, "BSTAR": 0.002199, "MEAN_MOTION_DOT": 5.933e-05, "MEAN_MOTION_DDOT": 0}, "tle": {"line1": "1 30688U 99025AQW 25337.15076005  .00005933  00000+0  21990-2 0  9996", "line2": "2 30688  98.7031  50.4905 0014915 346.5915  43.5186 14.32560008971239"}}, "geometry": {"type": "Point", "coordinates": [-93.07356497894911, 75.46438555075204]}}, {"type": "Feature", "properties": {"norad_id": 30689, "name": "FENGYUN 1C DEB", "group": "fengyun-1c-debris", "lat": 75.70523023334859, "lon": -73.0918129796838, "alt_km": 795.0105373026809, "timestamp": "2025-12-03T08:58:46.279597+00:00", "meta": {"OBJECT_NAME": "FENGYUN 1C DEB", "OBJECT_ID": "1999-025AQX", "EPOCH": "2025-12-02T22:39:38.003904", "MEAN_MOTION": 14.1174538, "ECCENTRICITY": 0.0111489, "INCLINATION": 98.7073, "RA_OF_ASC_NODE": 323.4645, "ARG_OF_PERICENTER": 130.9549, "MEAN_ANOMALY": 284.7369, "EPHEMERIS_TYPE": 0, "CLASSIFICATION_TYPE": "U", "NORAD_CAT_ID": 30689, "ELEMENT_SET_NO": 999, "REV_AT_EPOCH": 96752, "BSTAR": 0.00040698, "MEAN_MOTION_DOT": 7.44e-06, "MEAN_MOTION_DDOT": 0}, "tle": {"line1": "1 30689U 99025AQX 25336.94418986  .00000744  00000+0  40698-3 0  9993", "line2": "2 30689  98.7073 323.4645 0111489 130.9549 284.7369 14.11745380967526"}}, "geometry": {"type": "Point", "coordinates": [-73.0918129796838, 75.70523023334859]}}, {"type": "Feature", "properties": {"norad_id": 30690, "name": "FENGYUN 1C DEB", "group": "fengyun-1c-debris", "lat": 79.30037336330378, "lon": -150.91598708530137, "alt_km": 806.0074965477052, "timestamp": "2025-12-03T08:58:46.279608+00:00", "meta": {"OBJECT_NAME": "FENGYUN 1C DEB", "OBJECT_ID": "1999-025AQY", "EPOCH": "2025-12-03T01:49:40.420992", "MEAN_MOTION": 14.02265789, "ECCENTRICITY": 0.0104412, "INCLINATION": 99.1596, "RA_OF_ASC_NODE": 267.4241, "ARG_OF_PERICENTER": 102.4532, "MEAN_ANOMALY": 278.9121, "EPHEMERIS_TYPE": 0, "CLASSIFICATION_TYPE": "U", "NORAD_CAT_ID": 30690, "ELEMENT_SET_NO": 999, "REV_AT_EPOCH": 95572, "BSTAR": 0.0014474, "MEAN_MOTION_DOT": 2.282e-05, "MEAN_MOTION_DDOT": 0}, "tle": {"line1": "1 30690U 99025AQY 25337.07616228  .00002282  00000+0  14474-2 0  9990", "line2": "2 30690  99.1596 267.4241 0104412 102.4532 278.9121 14.02265789955726"}}, "geometry": {"type": "Point", "coordinates": [-150.91598708530137, 79.30037336330378]}}, {"type": "Feature", "properties": {"norad_id": 30691, "name": "FENGYUN 1C DEB", "group": "fengyun-1c-debris", "lat": 25.66205897012449, "lon": 173.59096922100048, "alt_km": 954.771982158627, "timestamp": "2025-12-03T08:58:46.279618+00:00", "meta": {"OBJECT_NAME": "FENGYUN 1C DEB", "OBJECT_ID": "1999-025AQZ", "EPOCH": "2025-12-02T12:14:22.660800", "MEAN_MOTION": 13.89386426, "ECCENTRICITY": 0.01391392, "INCLINATION": 98.7431, "RA_OF_ASC_NODE": 348.5393, "ARG_OF_PERICENTER": 261.2387, "MEAN_ANOMALY": 254.2199, "EPHEMERIS_TYPE": 0, "CLASSIFICATION_TYPE": "U", "NORAD_CAT_ID": 30691, "ELEMENT_SET_NO": 999, "REV_AT_EPOCH": 94974, "BSTAR": 0.0014193693, "MEAN_MOTION_DOT": 1.83e-05, "MEAN_MOTION_DDOT": 0}, "tle": {"line1": "1 30691U 99025AQZ 25336.50998450  .00001830  00000+0  14194-2 0  9995", "line2": "2 30691  98.7431 348.5393 0139139 261.2387 254.2199 13.89386426949748"}}, "geometry": {"type": "Point", "coordinates": [173.59096922100048, 25.66205897012449]}}, {"type": "Feature", "properties": {"norad_id": 30693, "name": "FENGYUN 1C DEB", "group": "fengyun-1c-debris", "lat": -6.682124416269312, "lon": 141.75045559121943, "alt_km": 831.3002724042772, "timestamp": "2025-12-03T08:58:46.279629+00:00", "meta": {"OBJECT_NAME": "FENGYUN 1C DEB", "OBJECT_ID": "1999-025ARB", "EPOCH": "2025-12-02T21:54:13.194144", "MEAN_MOTION": 14.13267654, "ECCENTRICITY": 0.0028819, "INCLINATION": 98.6855, "RA_OF_ASC_NODE": 322.3287, "ARG_OF_PERICENTER": 195.6312, "MEAN_ANOMALY": 164.3973, "EPHEMERIS_TYPE": 0, "CLASSIFICATION_TYPE": "U", "NORAD_CAT_ID": 30693, "ELEMENT_SET_NO": 999, "REV_AT_EPOCH": 96796, "BSTAR": 0.00040482, "MEAN_MOTION_DOT": 7.19e-06, "MEAN_MOTION_DDOT": 0}, "tle": {"line1": "1 30693U 99025ARB 25336.91265271  .00000719  00000+0  40482-3 0  9995", "line2": "2 30693  98.6855 322.3287 0028819 195.6312 164.3973 14.13267654967965"}}, "geometry": {"type": "Point", "coordinates": [141.75045559121943, -6.682124416269312]}}, {"type": "Feature", "properties": {"norad_id": 30694, "name": "FENGYUN 1C DEB", "group": "fengyun-1c-debris", "lat": 35.90236319404011, "lon": 128.9123385727003, "alt_km": 700.7292432703762, "timestamp": "2025-12-03T08:58:46.279639+00:00", "meta": {"OBJECT_NAME": "FENGYUN 1C DEB", "OBJECT_ID": "1999-025ARC", "EPOCH": "2025-12-02T14:33:19.525536", "MEAN_MOTION": 14.8592489, "ECCENTRICITY": 0.01326136, "INCLINATION": 99.0455, "RA_OF_ASC_NODE": 301.4176, "ARG_OF_PERICENTER": 327.2969, "MEAN_ANOMALY": 32.0082, "EPHEMERIS_TYPE": 0, "CLASSIFICATION_TYPE": "U", "NORAD_CAT_ID": 30694, "ELEMENT_SET_NO": 999, "REV_AT_EPOCH": 99951, "BSTAR": 0.0023269694, "MEAN_MOTION_DOT": 0.00023803, "MEAN_MOTION_DDOT": 0}, "tle": {"line1": "1 30694U 99025ARC 25336.60647599  .00023803  00000+0  23270-2 0  9993", "line2": "2 30694  99.0455 301.4176 0132613 327.2969  32.0082 14.85924890999510"}}, "geometry": {"type": "Point", "coordinates": [128.9123385727003, 35.90236319404011]}}, {"type": "Feature", "properties": {"norad_id": 30696, "name": "FENGYUN 1C DEB", "group": "fengyun-1c-debris", "lat": 40.47417436911256, "lon": 19.276842275715335, "alt_km": 764.1720509363777, "timestamp": "2025-12-03T08:58:46.279649+00:00", "meta": {"OBJECT_NAME": "FENGYUN 1C DEB", "OBJECT_ID": "1999-025ARE", "EPOCH": "2025-12-03T02:16:54.664896", "MEAN_MOTION": 14.44663695, "ECCENTRICITY": 0.008994, "INCLINATION": 98.3905, "RA_OF_ASC_NODE": 26.2365, "ARG_OF_PERICENTER": 154.6507, "MEAN_ANOMALY": 236.8531, "EPHEMERIS_TYPE": 0, "CLASSIFICATION_TYPE": "U", "NORAD_CAT_ID": 30696, "ELEMENT_SET_NO": 999, "REV_AT_EPOCH": 98165, "BSTAR": 0.0012041, "MEAN_MOTION_DOT": 4.34e-05, "MEAN_MOTION_DDOT": 0}, "tle": {"line1": "1 30696U 99025ARE 25337.09507714  .00004340  00000+0  12041-2 0  9992", "line2": "2 30696  98.3905  26.2365 0089940 154.6507 236.8531 14.44663695981657"}}, "geometry": {"type": "Point", "coordinates": [19.276842275715335, 40.47417436911256]}}, {"type": "Feature", "properties": {"norad_id": 30697, "name": "FENGYUN 1C DEB", "group": "fengyun-1c-debris", "lat": 37.17917590173271, "lon": -138.91121661138916, "alt_km": 821.8832020089749, "timestamp": "2025-12-03T08:58:46.279680+00:00", "meta": {"OBJECT_NAME": "FENGYUN 1C DEB", "OBJECT_ID": "1999-025ARF", "EPOCH": "2025-12-02T10:16:56.460864", "MEAN_MOTION": 14.13419891, "ECCENTRICITY": 0.00877171, "INCLINATION": 98.9085, "RA_OF_ASC_NODE": 33.3149, "ARG_OF_PERICENTER": 214.0225, "MEAN_ANOMALY": 159.6866, "EPHEMERIS_TYPE": 0, "CLASSIFICATION_TYPE": "U", "NORAD_CAT_ID": 30697, "ELEMENT_SET_NO": 999, "REV_AT_EPOCH": 96115, "BSTAR": 0.0019833151, "MEAN_MOTION_DOT": 3.823e-05, "MEAN_MOTION_DDOT": 0}, "tle": {"line1": "1 30697U 99025ARF 25336.42843126  .00003823  00000+0  19833-2 0  9990", "line2": "2 30697  98.9085  33.3149 0087717 214.0225 159.6866 14.13419891961159"}}, "geometry": {"type": "Point", "coordinates": [-138.91121661138916, 37.17917590173271]}}, {"type": "Feature", "properties": {"norad_id": 30699, "name": "FENGYUN 1C DEB", "group": "fengyun-1c-debris", "lat": -48.471567822392025, "lon": -94.75063333887104, "alt_km": 741.5520285435623, "timestamp": "2025-12-03T08:58:46.279691+00:00", "meta": {"OBJECT_NAME": "FENGYUN 1C DEB", "OBJECT_ID": "1999-025ARH", "EPOCH": "2025-12-02T07:01:24.932352", "MEAN_MOTION": 14.46647919, "ECCENTRICITY": 0.0003688, "INCLINATION": 99.3116, "RA_OF_ASC_NODE": 94.7383, "ARG_OF_PERICENTER": 279.4254, "MEAN_ANOMALY": 80.6518, "EPHEMERIS_TYPE": 0, "CLASSIFICATION_TYPE": "U", "NORAD_CAT_ID": 30699, "ELEMENT_SET_NO": 999, "REV_AT_EPOCH": 97462, "BSTAR": 0.002914, "MEAN_MOTION_DOT": 0.00010486, "MEAN_MOTION_DDOT": 0}, "tle": {"line1": "1 30699U 99025ARH 25336.29264968  .00010486  00000+0  29140-2 0  9993", "line2": "2 30699  99.3116  94.7383 0003688 279.4254  80.6518 14.46647919974627"}}, "geometry": {"type": "Point", "coordinates": [-94.75063333887104, -48.471567822392025]}}, {"type": "Feature", "properties": {"norad_id": 30700, "name": "FENGYUN 1C DEB", "group": "fengyun-1c-debris", "lat": 17.224595151141802, "lon": 3.2857056020959385, "alt_km": 868.4093570345194, "timestamp": "2025-12-03T08:58:46.279701+00:00", "meta": {"OBJECT_NAME": "FENGYUN 1C DEB", "OBJECT_ID": "1999-025ARJ", "EPOCH": "2025-12-03T00:27:48.401280", "MEAN_MOTION": 14.23780307, "ECCENTRICITY": 0.0086679, "INCLINATION": 98.5427, "RA_OF_ASC_NODE": 5.6119, "ARG_OF_PERICENTER": 171.4436, "MEAN_ANOMALY": 188.8245, "EPHEMERIS_TYPE": 0, "CLASSIFICATION_TYPE": "U", "NORAD_CAT_ID": 30700, "ELEMENT_SET_NO": 999, "REV_AT_EPOCH": 97431, "BSTAR": 0.00024537, "MEAN_MOTION_DOT": 5.41e-06, "MEAN_MOTION_DDOT": 0}, "tle": {"line1": "1 30700U 99025ARJ 25337.01931020  .00000541  00000+0  24537-3 0  9994", "line2": "2 30700  98.5427   5.6119 0086679 171.4436 188.8245 14.23780307974316"}}, "geometry": {"type": "Point", "coordinates": [3.2857056020959385, 17.224595151141802]}}]}